{
    "links": {
        "self": "http://www.neowsapp.com/rest/v1/neo/3092293?api_key=iIulBulltgU6a56xZRHN4H3l9WmuAYTsLGpBGhQ2"
    },
    "id": "3092293",
    "neo_reference_id": "3092293",
    "name": "(2001 FP32)",
    "designation": "2001 FP32",
    "nasa_jpl_url": "http://ssd.jpl.nasa.gov/sbdb.cgi?sstr=3092293",
    "absolute_magnitude_h": 23.393,
    "estimated_diameter": {
        "kilometers": {
            "estimated_diameter_min": 0.0557127988,
            "estimated_diameter_max": 0.1245776054
        },
        "meters": {
            "estimated_diameter_min": 55.7127988371,
            "estimated_diameter_max": 124.5776054166
        },
        "miles": {
            "estimated_diameter_min": 0.0346183175,
            "estimated_diameter_max": 0.0774089113
        },
        "feet": {
            "estimated_diameter_min": 182.7847789368,
            "estimated_diameter_max": 408.7191909549
        }
    },
    "is_potentially_hazardous_asteroid": false,
    "close_approach_data": [
        {
            "close_approach_date": "2001-03-25",
            "close_approach_date_full": "2001-Mar-25 22:21",
            "epoch_date_close_approach": 985558860000,
            "relative_velocity": {
                "kilometers_per_second": "17.6326877064",
                "kilometers_per_hour": "63477.6757428816",
                "miles_per_hour": "39442.5591303477"
            },
            "miss_distance": {
                "astronomical": "0.0523604749",
                "lunar": "20.3682247361",
                "kilometers": "7833015.517228463",
                "miles": "4867210.1468722694"
            },
            "orbiting_body": "Earth"
        },
        {
            "close_approach_date": "2001-09-14",
            "close_approach_date_full": "2001-Sep-14 15:48",
            "epoch_date_close_approach": 1000482480000,
            "relative_velocity": {
                "kilometers_per_second": "14.9528084841",
                "kilometers_per_hour": "53830.1105428198",
                "miles_per_hour": "33447.9372981204"
            },
            "miss_distance": {
                "astronomical": "0.4314423563",
                "lunar": "167.8310766007",
                "kilometers": "64542857.530261081",
                "miles": "40105071.9724056778"
            },
            "orbiting_body": "Earth"
        }
    ],
    "orbital_data": {
        "orbit_id": "13",
        "orbit_determination_date": "2017-04-06 09:16:29",
        "first_observation_date": "2001-03-20",
        "last_observation_date": "2001-03-24",
        "data_arc_in_days": 4,
        "observations_used": 16,
        "orbit_uncertainty": "9",
        "minimum_orbit_intersection": ".0522971",
        "jupiter_tisserand_invariant": "4.672",
        "epoch_osculation": "2451990.5",
        "eccentricity": ".3328890745014085",
        "semi_major_axis": "1.357896325261093",
        "inclination": "29.25952976179006",
        "ascending_node_longitude": "182.6172031596603",
        "orbital_period": "577.9607505998954",
        "perihelion_distance": ".9058674742760641",
        "perihelion_argument": "64.70917372248056",
        "aphelion_distance": "1.809925176246121",
        "perihelion_time": "2452046.138947796291",
        "mean_anomaly": "325.3436307121642",
        "mean_motion": ".6228796672202003",
        "equinox": "J2000",
        "orbit_class": {
            "orbit_class_type": "APO",
            "orbit_class_description": "Near-Earth asteroid orbits which cross the Earth’s orbit similar to that of 1862 Apollo",
            "orbit_class_range": "a (semi-major axis) > 1.0 AU; q (perihelion) < 1.017 AU"
        }
    },
    "is_sentry_object": false
}